[Satellite]
VERSION=1.1
NAME=MOLNIYA 3-45
NICKNAME=MOLNIYA 3-45
TLE1=1 22729U 93049A   11058.50307068  .00001584  00000-0  10000-3 0  1759
TLE2=2 22729  62.0320 192.5887 7247281 259.8328  18.7786  2.00947360128699
